{
  "last_updated": "2025-12-26T06:00:01.854700",
  "satellites": {
    "98592": {
      "name": "DUTHSat-2",
      "norad_id": "98592",
      "tle": "1 64530U 25135C   25359.85368202  .00011897  00000-0  52519-3 0  9993\n2 64530  97.4500 111.6544 0006238  79.2682 280.9256 15.21885089 28526",
      "epoch": "2025-12-25T20:29:18.126528",
      "fetched_at": "2025-12-26T06:00:02.015395",
      "source": "satnogs"
    },
    "98530": {
      "name": "LAMARR",
      "norad_id": "98530",
      "tle": "1 66673U 25276H   25359.40693216  .00710020  00000-0  29527-1 0  9991\n2 66673  97.4357  70.9171 0012703 297.1638  62.8302 15.21370571  4040",
      "epoch": "2025-12-25T09:45:58.938624",
      "fetched_at": "2025-12-26T06:00:02.076125",
      "source": "satnogs"
    },
    "98529": {
      "name": "DIRAC",
      "norad_id": "98529",
      "tle": "1 66681U 25276R   25359.93152909  .00017336  00000-0  86527-3 0  9992\n2 66681  97.4330  71.4300 0004891 262.2066  97.8613 15.17554920  4126",
      "epoch": "2025-12-25T22:21:24.113376",
      "fetched_at": "2025-12-26T06:00:02.131232",
      "source": "satnogs"
    },
    "98518": {
      "name": "MICE-1",
      "norad_id": "98518",
      "tle": "1 98518U 25276Z   25345.50761227  .00000000  00000-0  85911-3 0 00002\n2 98518  97.4491  57.2978 0004401 288.2412 177.0173 15.17054724 01824",
      "epoch": "2025-12-11T12:10:57.700128",
      "fetched_at": "2025-12-26T06:00:02.185750",
      "source": "satnogs"
    }
  },
  "fetch_log": [
    {
      "norad_id": "98592",
      "name": "DUTHSat-2",
      "status": "success",
      "source": "satnogs",
      "timestamp": "2025-12-26T06:00:02.015398"
    },
    {
      "norad_id": "98530",
      "name": "LAMARR",
      "status": "success",
      "source": "satnogs",
      "timestamp": "2025-12-26T06:00:02.076131"
    },
    {
      "norad_id": "98529",
      "name": "DIRAC",
      "status": "success",
      "source": "satnogs",
      "timestamp": "2025-12-26T06:00:02.131235"
    },
    {
      "norad_id": "98518",
      "name": "MICE-1",
      "status": "success",
      "source": "satnogs",
      "timestamp": "2025-12-26T06:00:02.185758"
    }
  ]
}